<?xml version="1.0" encoding="UTF-8" standalone="yes"?>
<gpx version="1.1" creator="https://onthegomap.com" xmlns="http://www.topografix.com/GPX/1/1">
  <metadata>
    <name>post2.gpx</name>
    <link href="https://onthegomap.com">
      <text>On The Go Map</text>
    </link>
    <time>2026-05-26T15:40:54.122Z</time>
    <copyright author="On The Go Map, OpenStreetMap Contributors">
      <year>2026</year>
    </copyright>
  </metadata>
  <trk>
    <name>post2.gpx</name>
    <trkseg>
      <trkpt lat="46.64595" lon="11.58453"/>
      <trkpt lat="46.64596" lon="11.58446"/>
      <trkpt lat="46.64592" lon="11.58453"/>
      <trkpt lat="46.6458" lon="11.58482"/>
      <trkpt lat="46.64579" lon="11.58484"/>
      <trkpt lat="46.64559" lon="11.58483"/>
      <trkpt lat="46.64551" lon="11.58481"/>
      <trkpt lat="46.64539" lon="11.5847"/>
      <trkpt lat="46.64531" lon="11.58461"/>
      <trkpt lat="46.64521" lon="11.58445"/>
      <trkpt lat="46.64507" lon="11.58412"/>
      <trkpt lat="46.64502" lon="11.58389"/>
      <trkpt lat="46.64498" lon="11.58391"/>
      <trkpt lat="46.64497" lon="11.58395"/>
      <trkpt lat="46.64506" lon="11.58427"/>
      <trkpt lat="46.64512" lon="11.58442"/>
      <trkpt lat="46.64494" lon="11.58477"/>
      <trkpt lat="46.64489" lon="11.58493"/>
      <trkpt lat="46.64487" lon="11.58507"/>
      <trkpt lat="46.64489" lon="11.5852"/>
      <trkpt lat="46.64497" lon="11.58529"/>
      <trkpt lat="46.64534" lon="11.58577"/>
      <trkpt lat="46.64557" lon="11.58599"/>
      <trkpt lat="46.646" lon="11.58653"/>
      <trkpt lat="46.64611" lon="11.58672"/>
      <trkpt lat="46.64616" lon="11.58694"/>
      <trkpt lat="46.6462" lon="11.58718"/>
      <trkpt lat="46.64622" lon="11.58745"/>
      <trkpt lat="46.64621" lon="11.58749"/>
      <trkpt lat="46.64612" lon="11.58744"/>
      <trkpt lat="46.64601" lon="11.58736"/>
      <trkpt lat="46.64597" lon="11.58736"/>
      <trkpt lat="46.64596" lon="11.58742"/>
      <trkpt lat="46.646" lon="11.58755"/>
      <trkpt lat="46.6461" lon="11.5878"/>
      <trkpt lat="46.64596" lon="11.58822"/>
      <trkpt lat="46.64584" lon="11.5885"/>
      <trkpt lat="46.6457" lon="11.58887"/>
      <trkpt lat="46.64562" lon="11.58916"/>
      <trkpt lat="46.64558" lon="11.58944"/>
      <trkpt lat="46.64557" lon="11.59001"/>
      <trkpt lat="46.64557" lon="11.59023"/>
      <trkpt lat="46.6456" lon="11.59046"/>
      <trkpt lat="46.64564" lon="11.5905"/>
      <trkpt lat="46.6457" lon="11.5905"/>
      <trkpt lat="46.64569" lon="11.59062"/>
      <trkpt lat="46.64558" lon="11.59116"/>
      <trkpt lat="46.64556" lon="11.59145"/>
      <trkpt lat="46.64559" lon="11.59196"/>
      <trkpt lat="46.64567" lon="11.59188"/>
      <trkpt lat="46.64571" lon="11.59189"/>
      <trkpt lat="46.64577" lon="11.59196"/>
      <trkpt lat="46.64585" lon="11.59199"/>
      <trkpt lat="46.64589" lon="11.59198"/>
      <trkpt lat="46.64602" lon="11.5918"/>
      <trkpt lat="46.64619" lon="11.59145"/>
      <trkpt lat="46.64629" lon="11.59115"/>
      <trkpt lat="46.64652" lon="11.59075"/>
      <trkpt lat="46.64661" lon="11.5907"/>
      <trkpt lat="46.64671" lon="11.59069"/>
      <trkpt lat="46.64673" lon="11.59078"/>
      <trkpt lat="46.64669" lon="11.59084"/>
      <trkpt lat="46.64671" lon="11.59087"/>
      <trkpt lat="46.64668" lon="11.59088"/>
      <trkpt lat="46.64667" lon="11.59098"/>
      <trkpt lat="46.64664" lon="11.59103"/>
      <trkpt lat="46.64666" lon="11.59117"/>
      <trkpt lat="46.64664" lon="11.59139"/>
      <trkpt lat="46.64666" lon="11.59155"/>
      <trkpt lat="46.64674" lon="11.59175"/>
      <trkpt lat="46.64691" lon="11.59199"/>
      <trkpt lat="46.64701" lon="11.5921"/>
      <trkpt lat="46.64709" lon="11.59223"/>
      <trkpt lat="46.64713" lon="11.5924"/>
      <trkpt lat="46.64712" lon="11.59247"/>
      <trkpt lat="46.64713" lon="11.59254"/>
      <trkpt lat="46.64744" lon="11.59277"/>
      <trkpt lat="46.64769" lon="11.5935"/>
      <trkpt lat="46.64775" lon="11.59375"/>
      <trkpt lat="46.64776" lon="11.59391"/>
      <trkpt lat="46.64774" lon="11.59471"/>
      <trkpt lat="46.64778" lon="11.59502"/>
      <trkpt lat="46.64784" lon="11.59524"/>
      <trkpt lat="46.64781" lon="11.59548"/>
      <trkpt lat="46.648" lon="11.5961"/>
      <trkpt lat="46.648" lon="11.59616"/>
      <trkpt lat="46.64804" lon="11.59636"/>
      <trkpt lat="46.64806" lon="11.59654"/>
      <trkpt lat="46.64807" lon="11.59677"/>
      <trkpt lat="46.64806" lon="11.59731"/>
      <trkpt lat="46.64809" lon="11.59799"/>
      <trkpt lat="46.64811" lon="11.59823"/>
      <trkpt lat="46.64809" lon="11.59855"/>
      <trkpt lat="46.64802" lon="11.59879"/>
      <trkpt lat="46.64796" lon="11.5989"/>
      <trkpt lat="46.64779" lon="11.59904"/>
      <trkpt lat="46.6476" lon="11.59923"/>
      <trkpt lat="46.6475" lon="11.59945"/>
      <trkpt lat="46.64748" lon="11.59961"/>
      <trkpt lat="46.6475" lon="11.59999"/>
      <trkpt lat="46.64755" lon="11.60018"/>
      <trkpt lat="46.64776" lon="11.6007"/>
      <trkpt lat="46.64792" lon="11.60103"/>
      <trkpt lat="46.64806" lon="11.60125"/>
      <trkpt lat="46.64818" lon="11.60191"/>
      <trkpt lat="46.64816" lon="11.60245"/>
      <trkpt lat="46.64816" lon="11.60287"/>
      <trkpt lat="46.64791" lon="11.60273"/>
      <trkpt lat="46.64789" lon="11.60272"/>
      <trkpt lat="46.64783" lon="11.60269"/>
      <trkpt lat="46.64757" lon="11.60265"/>
      <trkpt lat="46.64734" lon="11.60265"/>
      <trkpt lat="46.64695" lon="11.60266"/>
      <trkpt lat="46.64686" lon="11.60271"/>
      <trkpt lat="46.6468" lon="11.6028"/>
      <trkpt lat="46.64676" lon="11.60296"/>
      <trkpt lat="46.64662" lon="11.60327"/>
      <trkpt lat="46.64656" lon="11.60346"/>
      <trkpt lat="46.6466" lon="11.60378"/>
      <trkpt lat="46.64663" lon="11.60517"/>
      <trkpt lat="46.64665" lon="11.60537"/>
      <trkpt lat="46.64677" lon="11.60572"/>
      <trkpt lat="46.64683" lon="11.60596"/>
      <trkpt lat="46.64688" lon="11.60617"/>
      <trkpt lat="46.64689" lon="11.60638"/>
      <trkpt lat="46.64685" lon="11.6067"/>
      <trkpt lat="46.64671" lon="11.60718"/>
      <trkpt lat="46.64657" lon="11.60759"/>
      <trkpt lat="46.64647" lon="11.60775"/>
      <trkpt lat="46.64641" lon="11.60779"/>
      <trkpt lat="46.64623" lon="11.60783"/>
      <trkpt lat="46.64607" lon="11.60782"/>
      <trkpt lat="46.64602" lon="11.60783"/>
      <trkpt lat="46.64598" lon="11.60788"/>
      <trkpt lat="46.64594" lon="11.6079"/>
      <trkpt lat="46.64576" lon="11.60787"/>
      <trkpt lat="46.64569" lon="11.6079"/>
      <trkpt lat="46.64559" lon="11.60802"/>
      <trkpt lat="46.64553" lon="11.60813"/>
      <trkpt lat="46.64549" lon="11.60814"/>
      <trkpt lat="46.64532" lon="11.60857"/>
      <trkpt lat="46.64523" lon="11.60876"/>
      <trkpt lat="46.64509" lon="11.60935"/>
      <trkpt lat="46.64482" lon="11.61008"/>
      <trkpt lat="46.64466" lon="11.61038"/>
      <trkpt lat="46.64461" lon="11.61053"/>
      <trkpt lat="46.6446" lon="11.6109"/>
      <trkpt lat="46.64456" lon="11.61121"/>
      <trkpt lat="46.64453" lon="11.61129"/>
      <trkpt lat="46.64452" lon="11.61142"/>
      <trkpt lat="46.6445" lon="11.61157"/>
      <trkpt lat="46.64445" lon="11.6117"/>
      <trkpt lat="46.64433" lon="11.6119"/>
      <trkpt lat="46.64427" lon="11.61196"/>
      <trkpt lat="46.64411" lon="11.61206"/>
      <trkpt lat="46.64387" lon="11.61212"/>
      <trkpt lat="46.64332" lon="11.61212"/>
      <trkpt lat="46.64314" lon="11.61218"/>
      <trkpt lat="46.64309" lon="11.61217"/>
      <trkpt lat="46.6431" lon="11.61211"/>
      <trkpt lat="46.64295" lon="11.61214"/>
      <trkpt lat="46.64243" lon="11.61245"/>
      <trkpt lat="46.6421" lon="11.6124"/>
      <trkpt lat="46.64194" lon="11.61268"/>
      <trkpt lat="46.64164" lon="11.61313"/>
      <trkpt lat="46.64168" lon="11.61344"/>
      <trkpt lat="46.64164" lon="11.61373"/>
      <trkpt lat="46.64155" lon="11.61404"/>
      <trkpt lat="46.64133" lon="11.61443"/>
      <trkpt lat="46.64128" lon="11.6146"/>
      <trkpt lat="46.64118" lon="11.61477"/>
      <trkpt lat="46.64099" lon="11.61501"/>
      <trkpt lat="46.6408" lon="11.61531"/>
      <trkpt lat="46.64044" lon="11.61649"/>
      <trkpt lat="46.64032" lon="11.61678"/>
      <trkpt lat="46.6402" lon="11.61701"/>
      <trkpt lat="46.64002" lon="11.61749"/>
      <trkpt lat="46.63999" lon="11.61746"/>
      <trkpt lat="46.64002" lon="11.61669"/>
      <trkpt lat="46.64012" lon="11.61566"/>
      <trkpt lat="46.6401" lon="11.61544"/>
      <trkpt lat="46.64003" lon="11.61557"/>
      <trkpt lat="46.63986" lon="11.61582"/>
      <trkpt lat="46.6398" lon="11.61594"/>
      <trkpt lat="46.63952" lon="11.61709"/>
      <trkpt lat="46.63941" lon="11.61736"/>
      <trkpt lat="46.63938" lon="11.61752"/>
      <trkpt lat="46.63931" lon="11.6177"/>
      <trkpt lat="46.63922" lon="11.61804"/>
      <trkpt lat="46.63917" lon="11.61827"/>
      <trkpt lat="46.63908" lon="11.61849"/>
      <trkpt lat="46.63894" lon="11.61868"/>
      <trkpt lat="46.63882" lon="11.61876"/>
      <trkpt lat="46.63868" lon="11.6188"/>
      <trkpt lat="46.63851" lon="11.61874"/>
      <trkpt lat="46.63841" lon="11.61865"/>
      <trkpt lat="46.63836" lon="11.61854"/>
      <trkpt lat="46.63792" lon="11.61754"/>
      <trkpt lat="46.63783" lon="11.61743"/>
      <trkpt lat="46.63771" lon="11.61724"/>
      <trkpt lat="46.63758" lon="11.61703"/>
      <trkpt lat="46.63755" lon="11.61692"/>
      <trkpt lat="46.6376" lon="11.61653"/>
      <trkpt lat="46.63765" lon="11.6163"/>
      <trkpt lat="46.6376" lon="11.61616"/>
      <trkpt lat="46.63752" lon="11.6163"/>
      <trkpt lat="46.63745" lon="11.61642"/>
      <trkpt lat="46.63722" lon="11.61638"/>
      <trkpt lat="46.63692" lon="11.61609"/>
      <trkpt lat="46.63682" lon="11.61596"/>
      <trkpt lat="46.63685" lon="11.61615"/>
      <trkpt lat="46.63648" lon="11.61639"/>
      <trkpt lat="46.63626" lon="11.61642"/>
      <trkpt lat="46.63623" lon="11.6165"/>
      <trkpt lat="46.63611" lon="11.6164"/>
      <trkpt lat="46.63588" lon="11.61634"/>
      <trkpt lat="46.63572" lon="11.61636"/>
      <trkpt lat="46.6356" lon="11.61642"/>
      <trkpt lat="46.63557" lon="11.61623"/>
      <trkpt lat="46.63537" lon="11.61635"/>
      <trkpt lat="46.63519" lon="11.61638"/>
      <trkpt lat="46.63508" lon="11.61635"/>
      <trkpt lat="46.63487" lon="11.61622"/>
      <trkpt lat="46.63478" lon="11.61618"/>
      <trkpt lat="46.63441" lon="11.61612"/>
      <trkpt lat="46.63409" lon="11.61619"/>
      <trkpt lat="46.6339" lon="11.61628"/>
      <trkpt lat="46.63373" lon="11.61641"/>
      <trkpt lat="46.63343" lon="11.61666"/>
      <trkpt lat="46.63329" lon="11.6168"/>
      <trkpt lat="46.63295" lon="11.61725"/>
      <trkpt lat="46.6323" lon="11.61789"/>
      <trkpt lat="46.63185" lon="11.61822"/>
      <trkpt lat="46.63143" lon="11.61858"/>
      <trkpt lat="46.63111" lon="11.61877"/>
      <trkpt lat="46.63079" lon="11.61892"/>
      <trkpt lat="46.63064" lon="11.61904"/>
      <trkpt lat="46.63049" lon="11.61926"/>
      <trkpt lat="46.63031" lon="11.61947"/>
      <trkpt lat="46.62967" lon="11.62015"/>
      <trkpt lat="46.62915" lon="11.6205"/>
      <trkpt lat="46.62909" lon="11.62058"/>
      <trkpt lat="46.62905" lon="11.62072"/>
      <trkpt lat="46.62907" lon="11.62093"/>
      <trkpt lat="46.62913" lon="11.62112"/>
      <trkpt lat="46.62921" lon="11.62128"/>
      <trkpt lat="46.62936" lon="11.62139"/>
      <trkpt lat="46.62946" lon="11.62151"/>
      <trkpt lat="46.62961" lon="11.62181"/>
      <trkpt lat="46.62967" lon="11.622"/>
      <trkpt lat="46.62973" lon="11.62234"/>
      <trkpt lat="46.62972" lon="11.62274"/>
      <trkpt lat="46.62974" lon="11.62294"/>
      <trkpt lat="46.62978" lon="11.62304"/>
      <trkpt lat="46.62984" lon="11.6231"/>
      <trkpt lat="46.63004" lon="11.62325"/>
      <trkpt lat="46.63031" lon="11.62353"/>
      <trkpt lat="46.63042" lon="11.62371"/>
      <trkpt lat="46.6306" lon="11.62407"/>
      <trkpt lat="46.63064" lon="11.62417"/>
      <trkpt lat="46.63066" lon="11.62428"/>
      <trkpt lat="46.63066" lon="11.62439"/>
      <trkpt lat="46.63063" lon="11.62454"/>
      <trkpt lat="46.63059" lon="11.62472"/>
      <trkpt lat="46.63048" lon="11.62502"/>
      <trkpt lat="46.63041" lon="11.62525"/>
      <trkpt lat="46.63028" lon="11.62552"/>
      <trkpt lat="46.63025" lon="11.62566"/>
      <trkpt lat="46.63029" lon="11.62599"/>
      <trkpt lat="46.63008" lon="11.62639"/>
      <trkpt lat="46.62984" lon="11.62655"/>
      <trkpt lat="46.62971" lon="11.6266"/>
      <trkpt lat="46.62963" lon="11.62659"/>
      <trkpt lat="46.62954" lon="11.6267"/>
      <trkpt lat="46.62939" lon="11.62668"/>
      <trkpt lat="46.62922" lon="11.62647"/>
      <trkpt lat="46.62919" lon="11.62638"/>
      <trkpt lat="46.62913" lon="11.62632"/>
      <trkpt lat="46.62909" lon="11.62631"/>
      <trkpt lat="46.62896" lon="11.62617"/>
      <trkpt lat="46.62892" lon="11.62607"/>
      <trkpt lat="46.62887" lon="11.62605"/>
      <trkpt lat="46.62876" lon="11.626"/>
      <trkpt lat="46.62866" lon="11.62604"/>
      <trkpt lat="46.62852" lon="11.62604"/>
      <trkpt lat="46.62836" lon="11.62594"/>
      <trkpt lat="46.62828" lon="11.62591"/>
      <trkpt lat="46.62808" lon="11.62599"/>
      <trkpt lat="46.62802" lon="11.62597"/>
      <trkpt lat="46.62776" lon="11.62597"/>
      <trkpt lat="46.62767" lon="11.6258"/>
      <trkpt lat="46.62764" lon="11.62576"/>
      <trkpt lat="46.62746" lon="11.62577"/>
      <trkpt lat="46.62736" lon="11.62572"/>
      <trkpt lat="46.62723" lon="11.62569"/>
      <trkpt lat="46.62717" lon="11.62572"/>
      <trkpt lat="46.62717" lon="11.6259"/>
      <trkpt lat="46.62706" lon="11.62597"/>
      <trkpt lat="46.62698" lon="11.62613"/>
      <trkpt lat="46.62681" lon="11.62637"/>
      <trkpt lat="46.62666" lon="11.62643"/>
      <trkpt lat="46.62656" lon="11.62652"/>
      <trkpt lat="46.62633" lon="11.62656"/>
      <trkpt lat="46.62629" lon="11.62654"/>
      <trkpt lat="46.6262" lon="11.62654"/>
      <trkpt lat="46.62613" lon="11.62647"/>
      <trkpt lat="46.62604" lon="11.6265"/>
      <trkpt lat="46.62597" lon="11.62646"/>
      <trkpt lat="46.62589" lon="11.62648"/>
      <trkpt lat="46.6258" lon="11.62656"/>
      <trkpt lat="46.62575" lon="11.62656"/>
      <trkpt lat="46.62566" lon="11.62661"/>
      <trkpt lat="46.62559" lon="11.6266"/>
      <trkpt lat="46.62533" lon="11.62671"/>
      <trkpt lat="46.62526" lon="11.6268"/>
      <trkpt lat="46.62522" lon="11.6268"/>
      <trkpt lat="46.62509" lon="11.6269"/>
      <trkpt lat="46.62484" lon="11.62691"/>
      <trkpt lat="46.62476" lon="11.62683"/>
      <trkpt lat="46.6246" lon="11.62678"/>
      <trkpt lat="46.62448" lon="11.6267"/>
      <trkpt lat="46.62441" lon="11.62656"/>
      <trkpt lat="46.62433" lon="11.62649"/>
      <trkpt lat="46.62429" lon="11.62641"/>
      <trkpt lat="46.62419" lon="11.62636"/>
      <trkpt lat="46.624" lon="11.62632"/>
      <trkpt lat="46.62348" lon="11.62597"/>
      <trkpt lat="46.62338" lon="11.62569"/>
      <trkpt lat="46.62331" lon="11.62561"/>
      <trkpt lat="46.62314" lon="11.62561"/>
      <trkpt lat="46.62307" lon="11.62557"/>
      <trkpt lat="46.62299" lon="11.62559"/>
      <trkpt lat="46.6229" lon="11.62556"/>
      <trkpt lat="46.6227" lon="11.62562"/>
      <trkpt lat="46.62255" lon="11.6256"/>
      <trkpt lat="46.62202" lon="11.62576"/>
      <trkpt lat="46.62187" lon="11.62579"/>
      <trkpt lat="46.62166" lon="11.62576"/>
      <trkpt lat="46.62141" lon="11.6258"/>
      <trkpt lat="46.62098" lon="11.62605"/>
      <trkpt lat="46.62095" lon="11.62609"/>
      <trkpt lat="46.62076" lon="11.62635"/>
      <trkpt lat="46.6207" lon="11.62638"/>
      <trkpt lat="46.62049" lon="11.62668"/>
      <trkpt lat="46.62043" lon="11.62682"/>
      <trkpt lat="46.62035" lon="11.6269"/>
      <trkpt lat="46.62031" lon="11.62699"/>
      <trkpt lat="46.62018" lon="11.62713"/>
      <trkpt lat="46.62011" lon="11.62735"/>
      <trkpt lat="46.62004" lon="11.62749"/>
      <trkpt lat="46.61998" lon="11.62755"/>
      <trkpt lat="46.61993" lon="11.62764"/>
      <trkpt lat="46.61983" lon="11.62772"/>
      <trkpt lat="46.61966" lon="11.62778"/>
      <trkpt lat="46.6194" lon="11.62781"/>
      <trkpt lat="46.61894" lon="11.62802"/>
      <trkpt lat="46.61881" lon="11.62821"/>
      <trkpt lat="46.61875" lon="11.62827"/>
      <trkpt lat="46.61847" lon="11.6288"/>
      <trkpt lat="46.61825" lon="11.62908"/>
      <trkpt lat="46.61822" lon="11.62915"/>
      <trkpt lat="46.61811" lon="11.62922"/>
      <trkpt lat="46.618" lon="11.62933"/>
      <trkpt lat="46.61791" lon="11.62947"/>
      <trkpt lat="46.61771" lon="11.62958"/>
      <trkpt lat="46.61766" lon="11.62971"/>
      <trkpt lat="46.61753" lon="11.6299"/>
      <trkpt lat="46.61739" lon="11.63015"/>
      <trkpt lat="46.61727" lon="11.63029"/>
      <trkpt lat="46.61706" lon="11.63059"/>
      <trkpt lat="46.61695" lon="11.63089"/>
      <trkpt lat="46.61701" lon="11.63106"/>
      <trkpt lat="46.61699" lon="11.63117"/>
      <trkpt lat="46.61679" lon="11.63179"/>
      <trkpt lat="46.61672" lon="11.63219"/>
      <trkpt lat="46.61664" lon="11.63232"/>
      <trkpt lat="46.61643" lon="11.63257"/>
      <trkpt lat="46.61638" lon="11.63272"/>
      <trkpt lat="46.61634" lon="11.63314"/>
      <trkpt lat="46.61625" lon="11.63327"/>
      <trkpt lat="46.61622" lon="11.63341"/>
      <trkpt lat="46.61605" lon="11.63376"/>
      <trkpt lat="46.61599" lon="11.63385"/>
      <trkpt lat="46.61582" lon="11.63401"/>
      <trkpt lat="46.6157" lon="11.63417"/>
      <trkpt lat="46.61517" lon="11.63504"/>
      <trkpt lat="46.61511" lon="11.63507"/>
      <trkpt lat="46.61505" lon="11.63498"/>
      <trkpt lat="46.61487" lon="11.63491"/>
      <trkpt lat="46.61471" lon="11.63493"/>
      <trkpt lat="46.61457" lon="11.63491"/>
      <trkpt lat="46.61447" lon="11.63497"/>
      <trkpt lat="46.61441" lon="11.63504"/>
      <trkpt lat="46.61437" lon="11.63533"/>
      <trkpt lat="46.61426" lon="11.63542"/>
      <trkpt lat="46.61415" lon="11.63556"/>
      <trkpt lat="46.61382" lon="11.63581"/>
      <trkpt lat="46.61363" lon="11.63591"/>
      <trkpt lat="46.61347" lon="11.63596"/>
      <trkpt lat="46.61332" lon="11.63611"/>
      <trkpt lat="46.61308" lon="11.63653"/>
      <trkpt lat="46.61297" lon="11.63659"/>
      <trkpt lat="46.61291" lon="11.63675"/>
      <trkpt lat="46.61282" lon="11.63689"/>
      <trkpt lat="46.61268" lon="11.63731"/>
      <trkpt lat="46.61257" lon="11.63746"/>
      <trkpt lat="46.61244" lon="11.63754"/>
      <trkpt lat="46.61234" lon="11.63765"/>
      <trkpt lat="46.61226" lon="11.63779"/>
      <trkpt lat="46.61203" lon="11.63841"/>
      <trkpt lat="46.61186" lon="11.63877"/>
      <trkpt lat="46.61181" lon="11.63897"/>
      <trkpt lat="46.61181" lon="11.63912"/>
      <trkpt lat="46.61184" lon="11.63925"/>
      <trkpt lat="46.6119" lon="11.63963"/>
      <trkpt lat="46.61189" lon="11.63978"/>
      <trkpt lat="46.61175" lon="11.64011"/>
      <trkpt lat="46.61148" lon="11.64051"/>
      <trkpt lat="46.61135" lon="11.64058"/>
      <trkpt lat="46.61129" lon="11.64057"/>
      <trkpt lat="46.61113" lon="11.64067"/>
      <trkpt lat="46.61102" lon="11.64083"/>
      <trkpt lat="46.61092" lon="11.64108"/>
      <trkpt lat="46.61089" lon="11.64127"/>
      <trkpt lat="46.61075" lon="11.64176"/>
      <trkpt lat="46.61054" lon="11.64292"/>
      <trkpt lat="46.61028" lon="11.64359"/>
      <trkpt lat="46.61011" lon="11.64393"/>
      <trkpt lat="46.6099" lon="11.64468"/>
      <trkpt lat="46.60977" lon="11.64498"/>
      <trkpt lat="46.60972" lon="11.64514"/>
      <trkpt lat="46.60967" lon="11.64555"/>
      <trkpt lat="46.60952" lon="11.64578"/>
      <trkpt lat="46.60943" lon="11.64604"/>
      <trkpt lat="46.60923" lon="11.64636"/>
      <trkpt lat="46.60917" lon="11.64651"/>
      <trkpt lat="46.60908" lon="11.64709"/>
      <trkpt lat="46.60896" lon="11.64735"/>
      <trkpt lat="46.60879" lon="11.64778"/>
      <trkpt lat="46.60876" lon="11.648"/>
      <trkpt lat="46.60884" lon="11.64868"/>
      <trkpt lat="46.60889" lon="11.64887"/>
      <trkpt lat="46.6089" lon="11.64915"/>
      <trkpt lat="46.60878" lon="11.6497"/>
      <trkpt lat="46.6088" lon="11.65002"/>
      <trkpt lat="46.60864" lon="11.65051"/>
      <trkpt lat="46.60866" lon="11.65078"/>
      <trkpt lat="46.60864" lon="11.6509"/>
      <trkpt lat="46.60852" lon="11.65108"/>
      <trkpt lat="46.60832" lon="11.65162"/>
      <trkpt lat="46.6082" lon="11.65163"/>
      <trkpt lat="46.60808" lon="11.65159"/>
      <trkpt lat="46.60797" lon="11.65146"/>
      <trkpt lat="46.60789" lon="11.6512"/>
      <trkpt lat="46.60781" lon="11.65108"/>
      <trkpt lat="46.60746" lon="11.65093"/>
      <trkpt lat="46.60718" lon="11.65077"/>
      <trkpt lat="46.60691" lon="11.65066"/>
      <trkpt lat="46.60664" lon="11.65051"/>
      <trkpt lat="46.60639" lon="11.65051"/>
      <trkpt lat="46.60616" lon="11.65064"/>
      <trkpt lat="46.60528" lon="11.65042"/>
      <trkpt lat="46.60468" lon="11.65078"/>
      <trkpt lat="46.60416" lon="11.65071"/>
      <trkpt lat="46.6039" lon="11.65079"/>
      <trkpt lat="46.60336" lon="11.6513"/>
      <trkpt lat="46.60297" lon="11.65154"/>
      <trkpt lat="46.60276" lon="11.65199"/>
      <trkpt lat="46.60264" lon="11.65234"/>
      <trkpt lat="46.60263" lon="11.65252"/>
      <trkpt lat="46.60274" lon="11.65268"/>
      <trkpt lat="46.6028" lon="11.65268"/>
      <trkpt lat="46.60296" lon="11.65301"/>
      <trkpt lat="46.6028" lon="11.6533"/>
      <trkpt lat="46.60266" lon="11.65336"/>
      <trkpt lat="46.6024" lon="11.65337"/>
      <trkpt lat="46.60216" lon="11.65352"/>
      <trkpt lat="46.60183" lon="11.65343"/>
      <trkpt lat="46.60161" lon="11.6535"/>
      <trkpt lat="46.6012" lon="11.65349"/>
      <trkpt lat="46.60122" lon="11.65356"/>
      <trkpt lat="46.60118" lon="11.65357"/>
      <trkpt lat="46.60107" lon="11.65398"/>
      <trkpt lat="46.60103" lon="11.65407"/>
      <trkpt lat="46.60101" lon="11.65408"/>
      <trkpt lat="46.60086" lon="11.65409"/>
      <trkpt lat="46.60074" lon="11.65404"/>
      <trkpt lat="46.6007" lon="11.65405"/>
      <trkpt lat="46.60067" lon="11.65412"/>
      <trkpt lat="46.60081" lon="11.65417"/>
      <trkpt lat="46.60083" lon="11.65424"/>
      <trkpt lat="46.60095" lon="11.65427"/>
      <trkpt lat="46.601" lon="11.65437"/>
      <trkpt lat="46.60098" lon="11.65443"/>
      <trkpt lat="46.601" lon="11.65449"/>
      <trkpt lat="46.60109" lon="11.65449"/>
      <trkpt lat="46.60111" lon="11.65463"/>
      <trkpt lat="46.60124" lon="11.65477"/>
      <trkpt lat="46.60131" lon="11.655"/>
      <trkpt lat="46.60137" lon="11.65502"/>
      <trkpt lat="46.6014" lon="11.65509"/>
      <trkpt lat="46.60143" lon="11.65507"/>
      <trkpt lat="46.60152" lon="11.65516"/>
      <trkpt lat="46.60162" lon="11.65516"/>
      <trkpt lat="46.60175" lon="11.65536"/>
      <trkpt lat="46.60183" lon="11.65541"/>
      <trkpt lat="46.60211" lon="11.65574"/>
      <trkpt lat="46.60217" lon="11.65572"/>
      <trkpt lat="46.60229" lon="11.65581"/>
      <trkpt lat="46.60236" lon="11.65582"/>
      <trkpt lat="46.60265" lon="11.65593"/>
      <trkpt lat="46.60274" lon="11.65589"/>
      <trkpt lat="46.60291" lon="11.65588"/>
      <trkpt lat="46.60311" lon="11.65593"/>
      <trkpt lat="46.60322" lon="11.65603"/>
      <trkpt lat="46.60332" lon="11.65603"/>
      <trkpt lat="46.60352" lon="11.65619"/>
      <trkpt lat="46.60361" lon="11.65622"/>
      <trkpt lat="46.60367" lon="11.6563"/>
      <trkpt lat="46.60366" lon="11.65632"/>
      <trkpt lat="46.60353" lon="11.65652"/>
      <trkpt lat="46.6035" lon="11.65661"/>
      <trkpt lat="46.60341" lon="11.65673"/>
      <trkpt lat="46.60346" lon="11.65694"/>
      <trkpt lat="46.60341" lon="11.65712"/>
      <trkpt lat="46.60335" lon="11.6572"/>
      <trkpt lat="46.60333" lon="11.65741"/>
      <trkpt lat="46.60326" lon="11.65756"/>
      <trkpt lat="46.60329" lon="11.65786"/>
      <trkpt lat="46.60325" lon="11.65806"/>
      <trkpt lat="46.60328" lon="11.65818"/>
      <trkpt lat="46.60323" lon="11.65851"/>
      <trkpt lat="46.60322" lon="11.65888"/>
      <trkpt lat="46.60327" lon="11.65928"/>
      <trkpt lat="46.60326" lon="11.65949"/>
      <trkpt lat="46.60317" lon="11.65976"/>
      <trkpt lat="46.60314" lon="11.66037"/>
      <trkpt lat="46.60305" lon="11.66095"/>
      <trkpt lat="46.60303" lon="11.66117"/>
      <trkpt lat="46.60305" lon="11.66133"/>
      <trkpt lat="46.60301" lon="11.66203"/>
      <trkpt lat="46.60298" lon="11.66225"/>
      <trkpt lat="46.6028" lon="11.663"/>
      <trkpt lat="46.60269" lon="11.66326"/>
      <trkpt lat="46.60269" lon="11.66343"/>
      <trkpt lat="46.6026" lon="11.66394"/>
      <trkpt lat="46.60251" lon="11.66422"/>
      <trkpt lat="46.60244" lon="11.6647"/>
      <trkpt lat="46.60233" lon="11.66528"/>
      <trkpt lat="46.60233" lon="11.66541"/>
      <trkpt lat="46.60226" lon="11.66584"/>
      <trkpt lat="46.60224" lon="11.66617"/>
      <trkpt lat="46.60211" lon="11.66658"/>
      <trkpt lat="46.60206" lon="11.66723"/>
      <trkpt lat="46.60198" lon="11.66769"/>
      <trkpt lat="46.6019" lon="11.66798"/>
      <trkpt lat="46.60154" lon="11.66885"/>
      <trkpt lat="46.60154" lon="11.66884"/>
      <trkpt lat="46.60168" lon="11.66793"/>
      <trkpt lat="46.60165" lon="11.66667"/>
      <trkpt lat="46.60168" lon="11.66625"/>
      <trkpt lat="46.6017" lon="11.6656"/>
      <trkpt lat="46.60174" lon="11.66532"/>
      <trkpt lat="46.60173" lon="11.66519"/>
      <trkpt lat="46.60172" lon="11.66466"/>
      <trkpt lat="46.60176" lon="11.66453"/>
      <trkpt lat="46.60177" lon="11.66439"/>
      <trkpt lat="46.60173" lon="11.66415"/>
      <trkpt lat="46.60173" lon="11.66388"/>
      <trkpt lat="46.60174" lon="11.66358"/>
      <trkpt lat="46.6018" lon="11.66276"/>
      <trkpt lat="46.60172" lon="11.6623"/>
      <trkpt lat="46.60144" lon="11.66079"/>
      <trkpt lat="46.60134" lon="11.66085"/>
      <trkpt lat="46.60126" lon="11.66094"/>
      <trkpt lat="46.60117" lon="11.66121"/>
      <trkpt lat="46.60105" lon="11.66146"/>
      <trkpt lat="46.60102" lon="11.66153"/>
      <trkpt lat="46.60086" lon="11.66178"/>
      <trkpt lat="46.60071" lon="11.66195"/>
      <trkpt lat="46.60047" lon="11.66183"/>
      <trkpt lat="46.60039" lon="11.66186"/>
      <trkpt lat="46.60039" lon="11.66187"/>
      <trkpt lat="46.60025" lon="11.66203"/>
      <trkpt lat="46.60023" lon="11.66228"/>
      <trkpt lat="46.59991" lon="11.66298"/>
      <trkpt lat="46.59965" lon="11.66349"/>
      <trkpt lat="46.59953" lon="11.6638"/>
      <trkpt lat="46.59903" lon="11.66527"/>
      <trkpt lat="46.59883" lon="11.6658"/>
      <trkpt lat="46.59872" lon="11.66624"/>
      <trkpt lat="46.59849" lon="11.66679"/>
      <trkpt lat="46.5984" lon="11.66709"/>
      <trkpt lat="46.59826" lon="11.66764"/>
      <trkpt lat="46.5982" lon="11.66791"/>
      <trkpt lat="46.59817" lon="11.66817"/>
      <trkpt lat="46.59816" lon="11.66829"/>
      <trkpt lat="46.59808" lon="11.66872"/>
      <trkpt lat="46.59769" lon="11.67001"/>
      <trkpt lat="46.59724" lon="11.67107"/>
      <trkpt lat="46.59708" lon="11.67151"/>
      <trkpt lat="46.59687" lon="11.67194"/>
      <trkpt lat="46.59666" lon="11.6723"/>
      <trkpt lat="46.59656" lon="11.67252"/>
      <trkpt lat="46.59629" lon="11.67289"/>
      <trkpt lat="46.59618" lon="11.67311"/>
      <trkpt lat="46.59614" lon="11.6732"/>
      <trkpt lat="46.59611" lon="11.67347"/>
      <trkpt lat="46.59587" lon="11.67422"/>
      <trkpt lat="46.59566" lon="11.67437"/>
      <trkpt lat="46.59542" lon="11.67514"/>
      <trkpt lat="46.59499" lon="11.67596"/>
      <trkpt lat="46.59478" lon="11.67642"/>
      <trkpt lat="46.59457" lon="11.67703"/>
      <trkpt lat="46.59429" lon="11.67769"/>
      <trkpt lat="46.59427" lon="11.67776"/>
      <trkpt lat="46.59432" lon="11.67795"/>
      <trkpt lat="46.59429" lon="11.67816"/>
      <trkpt lat="46.59424" lon="11.67826"/>
      <trkpt lat="46.59411" lon="11.6784"/>
      <trkpt lat="46.59408" lon="11.67848"/>
      <trkpt lat="46.59397" lon="11.67902"/>
      <trkpt lat="46.59393" lon="11.67937"/>
      <trkpt lat="46.59389" lon="11.67943"/>
      <trkpt lat="46.59387" lon="11.67943"/>
      <trkpt lat="46.59385" lon="11.67937"/>
      <trkpt lat="46.59379" lon="11.67903"/>
      <trkpt lat="46.59357" lon="11.67829"/>
      <trkpt lat="46.59354" lon="11.67812"/>
      <trkpt lat="46.59357" lon="11.67805"/>
      <trkpt lat="46.59359" lon="11.67791"/>
      <trkpt lat="46.59357" lon="11.67768"/>
      <trkpt lat="46.59352" lon="11.67761"/>
      <trkpt lat="46.59337" lon="11.67752"/>
      <trkpt lat="46.59329" lon="11.67737"/>
      <trkpt lat="46.59244" lon="11.6739"/>
      <trkpt lat="46.59247" lon="11.67368"/>
      <trkpt lat="46.59244" lon="11.67333"/>
      <trkpt lat="46.59224" lon="11.6723"/>
      <trkpt lat="46.5922" lon="11.672"/>
      <trkpt lat="46.59221" lon="11.67169"/>
      <trkpt lat="46.5922" lon="11.67164"/>
      <trkpt lat="46.59215" lon="11.67166"/>
      <trkpt lat="46.59203" lon="11.67191"/>
      <trkpt lat="46.59182" lon="11.67206"/>
      <trkpt lat="46.59165" lon="11.67213"/>
      <trkpt lat="46.59157" lon="11.67222"/>
      <trkpt lat="46.59151" lon="11.67235"/>
      <trkpt lat="46.59147" lon="11.67239"/>
      <trkpt lat="46.59133" lon="11.67242"/>
      <trkpt lat="46.59127" lon="11.67247"/>
      <trkpt lat="46.59121" lon="11.67256"/>
      <trkpt lat="46.59113" lon="11.67278"/>
      <trkpt lat="46.59102" lon="11.67323"/>
      <trkpt lat="46.59081" lon="11.67376"/>
      <trkpt lat="46.59072" lon="11.67387"/>
      <trkpt lat="46.59063" lon="11.67389"/>
      <trkpt lat="46.59011" lon="11.67429"/>
      <trkpt lat="46.5899" lon="11.67451"/>
      <trkpt lat="46.58973" lon="11.67473"/>
      <trkpt lat="46.58952" lon="11.67555"/>
      <trkpt lat="46.5895" lon="11.67577"/>
      <trkpt lat="46.58945" lon="11.67581"/>
      <trkpt lat="46.58941" lon="11.67579"/>
      <trkpt lat="46.58906" lon="11.67474"/>
      <trkpt lat="46.58899" lon="11.67449"/>
      <trkpt lat="46.58896" lon="11.67426"/>
      <trkpt lat="46.58894" lon="11.67395"/>
      <trkpt lat="46.58888" lon="11.67389"/>
      <trkpt lat="46.58878" lon="11.67366"/>
      <trkpt lat="46.58871" lon="11.67361"/>
      <trkpt lat="46.58865" lon="11.6735"/>
      <trkpt lat="46.5886" lon="11.67349"/>
      <trkpt lat="46.58858" lon="11.67343"/>
      <trkpt lat="46.58855" lon="11.67327"/>
      <trkpt lat="46.58851" lon="11.67314"/>
      <trkpt lat="46.58836" lon="11.67298"/>
      <trkpt lat="46.58832" lon="11.67287"/>
      <trkpt lat="46.58841" lon="11.67281"/>
      <trkpt lat="46.58835" lon="11.67274"/>
      <trkpt lat="46.5882" lon="11.67246"/>
      <trkpt lat="46.58816" lon="11.67233"/>
      <trkpt lat="46.58818" lon="11.6722"/>
      <trkpt lat="46.58814" lon="11.6721"/>
      <trkpt lat="46.58804" lon="11.67193"/>
      <trkpt lat="46.58797" lon="11.67185"/>
      <trkpt lat="46.58766" lon="11.67172"/>
      <trkpt lat="46.58749" lon="11.67158"/>
      <trkpt lat="46.58739" lon="11.67156"/>
      <trkpt lat="46.58729" lon="11.67152"/>
      <trkpt lat="46.5871" lon="11.67098"/>
      <trkpt lat="46.58714" lon="11.6707"/>
      <trkpt lat="46.58713" lon="11.67056"/>
      <trkpt lat="46.58705" lon="11.67044"/>
      <trkpt lat="46.58698" lon="11.67036"/>
      <trkpt lat="46.58687" lon="11.67028"/>
      <trkpt lat="46.58676" lon="11.67027"/>
      <trkpt lat="46.58665" lon="11.67033"/>
      <trkpt lat="46.58659" lon="11.67039"/>
      <trkpt lat="46.58654" lon="11.6704"/>
      <trkpt lat="46.58651" lon="11.67038"/>
      <trkpt lat="46.5864" lon="11.67016"/>
      <trkpt lat="46.5863" lon="11.66978"/>
      <trkpt lat="46.58623" lon="11.66946"/>
      <trkpt lat="46.58621" lon="11.66911"/>
      <trkpt lat="46.58615" lon="11.66898"/>
      <trkpt lat="46.5859" lon="11.66896"/>
      <trkpt lat="46.58579" lon="11.66897"/>
      <trkpt lat="46.58542" lon="11.6691"/>
      <trkpt lat="46.58533" lon="11.66906"/>
      <trkpt lat="46.58526" lon="11.66889"/>
      <trkpt lat="46.58524" lon="11.66864"/>
      <trkpt lat="46.58518" lon="11.66839"/>
      <trkpt lat="46.58507" lon="11.66816"/>
      <trkpt lat="46.58494" lon="11.66777"/>
      <trkpt lat="46.58476" lon="11.66737"/>
      <trkpt lat="46.58462" lon="11.66735"/>
      <trkpt lat="46.58451" lon="11.66746"/>
      <trkpt lat="46.58436" lon="11.66754"/>
      <trkpt lat="46.58427" lon="11.66772"/>
      <trkpt lat="46.58386" lon="11.66822"/>
      <trkpt lat="46.58367" lon="11.66854"/>
      <trkpt lat="46.58357" lon="11.66877"/>
      <trkpt lat="46.58339" lon="11.66899"/>
      <trkpt lat="46.58332" lon="11.66926"/>
      <trkpt lat="46.58312" lon="11.66949"/>
      <trkpt lat="46.58304" lon="11.66962"/>
      <trkpt lat="46.583" lon="11.66976"/>
      <trkpt lat="46.58294" lon="11.66984"/>
      <trkpt lat="46.58265" lon="11.67011"/>
      <trkpt lat="46.58257" lon="11.67004"/>
      <trkpt lat="46.58244" lon="11.66976"/>
      <trkpt lat="46.5821" lon="11.6692"/>
      <trkpt lat="46.58179" lon="11.66851"/>
      <trkpt lat="46.58152" lon="11.66819"/>
      <trkpt lat="46.58143" lon="11.66814"/>
      <trkpt lat="46.5814" lon="11.66799"/>
      <trkpt lat="46.58124" lon="11.66765"/>
      <trkpt lat="46.58115" lon="11.66754"/>
      <trkpt lat="46.58101" lon="11.66708"/>
      <trkpt lat="46.58094" lon="11.66696"/>
      <trkpt lat="46.58084" lon="11.66659"/>
      <trkpt lat="46.58047" lon="11.66602"/>
      <trkpt lat="46.58037" lon="11.66598"/>
      <trkpt lat="46.58025" lon="11.66587"/>
      <trkpt lat="46.58019" lon="11.66585"/>
      <trkpt lat="46.58002" lon="11.66557"/>
      <trkpt lat="46.57996" lon="11.66556"/>
      <trkpt lat="46.57992" lon="11.6656"/>
      <trkpt lat="46.57987" lon="11.66572"/>
      <trkpt lat="46.57983" lon="11.66576"/>
      <trkpt lat="46.57975" lon="11.66597"/>
      <trkpt lat="46.57957" lon="11.66623"/>
      <trkpt lat="46.57949" lon="11.66632"/>
      <trkpt lat="46.57945" lon="11.66639"/>
      <trkpt lat="46.57932" lon="11.66656"/>
      <trkpt lat="46.57927" lon="11.66668"/>
      <trkpt lat="46.57911" lon="11.66701"/>
      <trkpt lat="46.57907" lon="11.66716"/>
      <trkpt lat="46.57898" lon="11.66739"/>
      <trkpt lat="46.57892" lon="11.66757"/>
      <trkpt lat="46.57888" lon="11.66811"/>
      <trkpt lat="46.57884" lon="11.66829"/>
      <trkpt lat="46.57879" lon="11.66844"/>
      <trkpt lat="46.57867" lon="11.66902"/>
      <trkpt lat="46.57846" lon="11.66986"/>
      <trkpt lat="46.57836" lon="11.67042"/>
      <trkpt lat="46.57819" lon="11.67083"/>
      <trkpt lat="46.57804" lon="11.6713"/>
      <trkpt lat="46.57794" lon="11.67171"/>
      <trkpt lat="46.5779" lon="11.6722"/>
      <trkpt lat="46.57785" lon="11.67228"/>
      <trkpt lat="46.57778" lon="11.6723"/>
      <trkpt lat="46.57771" lon="11.67227"/>
      <trkpt lat="46.57761" lon="11.67207"/>
      <trkpt lat="46.57724" lon="11.67143"/>
      <trkpt lat="46.57682" lon="11.67076"/>
      <trkpt lat="46.57667" lon="11.67038"/>
      <trkpt lat="46.5766" lon="11.67032"/>
      <trkpt lat="46.57662" lon="11.67026"/>
      <trkpt lat="46.5766" lon="11.67032"/>
      <trkpt lat="46.57657" lon="11.67042"/>
      <trkpt lat="46.57628" lon="11.67074"/>
      <trkpt lat="46.5762" lon="11.67089"/>
      <trkpt lat="46.57605" lon="11.67128"/>
      <trkpt lat="46.57593" lon="11.67154"/>
      <trkpt lat="46.57585" lon="11.67162"/>
      <trkpt lat="46.57571" lon="11.67171"/>
      <trkpt lat="46.57566" lon="11.67172"/>
      <trkpt lat="46.57563" lon="11.67169"/>
      <trkpt lat="46.57559" lon="11.67167"/>
      <trkpt lat="46.57544" lon="11.6716"/>
      <trkpt lat="46.57528" lon="11.67138"/>
      <trkpt lat="46.57521" lon="11.6714"/>
      <trkpt lat="46.57501" lon="11.67158"/>
      <trkpt lat="46.57491" lon="11.67149"/>
      <trkpt lat="46.57486" lon="11.67143"/>
      <trkpt lat="46.57482" lon="11.67134"/>
      <trkpt lat="46.5748" lon="11.6713"/>
      <trkpt lat="46.57473" lon="11.67125"/>
      <trkpt lat="46.57461" lon="11.67109"/>
      <trkpt lat="46.57456" lon="11.67114"/>
      <trkpt lat="46.57446" lon="11.67124"/>
      <trkpt lat="46.57439" lon="11.67129"/>
      <trkpt lat="46.5741" lon="11.67124"/>
      <trkpt lat="46.57407" lon="11.67121"/>
      <trkpt lat="46.57373" lon="11.67114"/>
      <trkpt lat="46.57314" lon="11.67089"/>
      <trkpt lat="46.57309" lon="11.67091"/>
      <trkpt lat="46.57307" lon="11.67083"/>
      <trkpt lat="46.57294" lon="11.67086"/>
      <trkpt lat="46.57279" lon="11.67086"/>
      <trkpt lat="46.57243" lon="11.67103"/>
      <trkpt lat="46.57216" lon="11.67124"/>
      <trkpt lat="46.57169" lon="11.671"/>
      <trkpt lat="46.57158" lon="11.67101"/>
      <trkpt lat="46.57152" lon="11.67114"/>
      <trkpt lat="46.5714" lon="11.67093"/>
      <trkpt lat="46.57132" lon="11.67084"/>
      <trkpt lat="46.57115" lon="11.67072"/>
      <trkpt lat="46.571" lon="11.67067"/>
      <trkpt lat="46.57067" lon="11.67068"/>
      <trkpt lat="46.57039" lon="11.67064"/>
      <trkpt lat="46.57028" lon="11.6706"/>
      <trkpt lat="46.57015" lon="11.67054"/>
      <trkpt lat="46.57001" lon="11.67045"/>
      <trkpt lat="46.56967" lon="11.67013"/>
      <trkpt lat="46.56962" lon="11.67004"/>
      <trkpt lat="46.56964" lon="11.67026"/>
      <trkpt lat="46.56978" lon="11.67064"/>
      <trkpt lat="46.56982" lon="11.6708"/>
      <trkpt lat="46.5698" lon="11.67087"/>
      <trkpt lat="46.56976" lon="11.67091"/>
      <trkpt lat="46.56971" lon="11.67094"/>
      <trkpt lat="46.56958" lon="11.67094"/>
      <trkpt lat="46.5694" lon="11.67077"/>
      <trkpt lat="46.56933" lon="11.67067"/>
      <trkpt lat="46.56926" lon="11.6706"/>
      <trkpt lat="46.56918" lon="11.67061"/>
      <trkpt lat="46.56911" lon="11.67067"/>
      <trkpt lat="46.56906" lon="11.67074"/>
      <trkpt lat="46.5689" lon="11.67108"/>
      <trkpt lat="46.56883" lon="11.67126"/>
      <trkpt lat="46.56866" lon="11.67149"/>
      <trkpt lat="46.56829" lon="11.6719"/>
      <trkpt lat="46.56811" lon="11.67214"/>
      <trkpt lat="46.56795" lon="11.67253"/>
      <trkpt lat="46.56786" lon="11.67287"/>
      <trkpt lat="46.56776" lon="11.67315"/>
      <trkpt lat="46.5675" lon="11.67369"/>
      <trkpt lat="46.5673" lon="11.67407"/>
      <trkpt lat="46.56717" lon="11.67436"/>
      <trkpt lat="46.56696" lon="11.67498"/>
      <trkpt lat="46.56677" lon="11.67539"/>
      <trkpt lat="46.56662" lon="11.67556"/>
      <trkpt lat="46.56638" lon="11.67592"/>
      <trkpt lat="46.56614" lon="11.67623"/>
      <trkpt lat="46.56601" lon="11.67644"/>
      <trkpt lat="46.5658" lon="11.67668"/>
      <trkpt lat="46.56558" lon="11.67731"/>
      <trkpt lat="46.56564" lon="11.67766"/>
      <trkpt lat="46.56564" lon="11.67794"/>
      <trkpt lat="46.56555" lon="11.67814"/>
      <trkpt lat="46.56531" lon="11.67844"/>
      <trkpt lat="46.56528" lon="11.67848"/>
      <trkpt lat="46.56506" lon="11.67887"/>
      <trkpt lat="46.56498" lon="11.67905"/>
      <trkpt lat="46.5648" lon="11.67917"/>
      <trkpt lat="46.56472" lon="11.67906"/>
      <trkpt lat="46.56461" lon="11.67896"/>
      <trkpt lat="46.56449" lon="11.67867"/>
      <trkpt lat="46.56433" lon="11.67844"/>
      <trkpt lat="46.564" lon="11.67808"/>
      <trkpt lat="46.56389" lon="11.67799"/>
      <trkpt lat="46.56319" lon="11.6778"/>
      <trkpt lat="46.56311" lon="11.67772"/>
      <trkpt lat="46.56302" lon="11.67771"/>
      <trkpt lat="46.5627" lon="11.67776"/>
      <trkpt lat="46.56242" lon="11.67812"/>
      <trkpt lat="46.56207" lon="11.67833"/>
      <trkpt lat="46.56172" lon="11.67841"/>
      <trkpt lat="46.56156" lon="11.67838"/>
      <trkpt lat="46.56152" lon="11.67835"/>
      <trkpt lat="46.56151" lon="11.67827"/>
      <trkpt lat="46.56115" lon="11.67789"/>
      <trkpt lat="46.56101" lon="11.67793"/>
      <trkpt lat="46.56091" lon="11.67812"/>
      <trkpt lat="46.56077" lon="11.67824"/>
      <trkpt lat="46.56042" lon="11.67827"/>
      <trkpt lat="46.56024" lon="11.67816"/>
      <trkpt lat="46.56017" lon="11.67825"/>
      <trkpt lat="46.56003" lon="11.67825"/>
      <trkpt lat="46.55995" lon="11.67822"/>
      <trkpt lat="46.55992" lon="11.67789"/>
      <trkpt lat="46.56001" lon="11.67782"/>
      <trkpt lat="46.56008" lon="11.67748"/>
      <trkpt lat="46.56003" lon="11.67735"/>
      <trkpt lat="46.55944" lon="11.67721"/>
      <trkpt lat="46.55927" lon="11.67713"/>
      <trkpt lat="46.55917" lon="11.67714"/>
      <trkpt lat="46.5587" lon="11.67751"/>
      <trkpt lat="46.55854" lon="11.6778"/>
      <trkpt lat="46.55844" lon="11.67785"/>
      <trkpt lat="46.55826" lon="11.6777"/>
      <trkpt lat="46.55822" lon="11.67755"/>
      <trkpt lat="46.55803" lon="11.6775"/>
      <trkpt lat="46.5578" lon="11.6775"/>
      <trkpt lat="46.55764" lon="11.67725"/>
      <trkpt lat="46.5576" lon="11.67714"/>
      <trkpt lat="46.55732" lon="11.67693"/>
      <trkpt lat="46.55715" lon="11.67688"/>
      <trkpt lat="46.55693" lon="11.67691"/>
      <trkpt lat="46.55669" lon="11.67705"/>
      <trkpt lat="46.55659" lon="11.67704"/>
      <trkpt lat="46.55653" lon="11.67642"/>
      <trkpt lat="46.5565" lon="11.67609"/>
      <trkpt lat="46.55641" lon="11.6757"/>
      <trkpt lat="46.55638" lon="11.67507"/>
      <trkpt lat="46.55617" lon="11.67421"/>
      <trkpt lat="46.5562" lon="11.67392"/>
      <trkpt lat="46.556" lon="11.67348"/>
      <trkpt lat="46.55567" lon="11.6726"/>
      <trkpt lat="46.55562" lon="11.67253"/>
      <trkpt lat="46.55526" lon="11.67231"/>
      <trkpt lat="46.55521" lon="11.67224"/>
      <trkpt lat="46.55516" lon="11.67212"/>
      <trkpt lat="46.55515" lon="11.67202"/>
      <trkpt lat="46.55523" lon="11.67175"/>
      <trkpt lat="46.55522" lon="11.67164"/>
      <trkpt lat="46.55518" lon="11.67156"/>
      <trkpt lat="46.55514" lon="11.6715"/>
      <trkpt lat="46.55502" lon="11.67143"/>
      <trkpt lat="46.55493" lon="11.67134"/>
      <trkpt lat="46.55439" lon="11.67061"/>
      <trkpt lat="46.55428" lon="11.66987"/>
      <trkpt lat="46.55429" lon="11.66972"/>
      <trkpt lat="46.55434" lon="11.66964"/>
      <trkpt lat="46.55449" lon="11.66956"/>
      <trkpt lat="46.55452" lon="11.66949"/>
      <trkpt lat="46.55452" lon="11.66912"/>
      <trkpt lat="46.55456" lon="11.66882"/>
      <trkpt lat="46.55464" lon="11.66849"/>
      <trkpt lat="46.55477" lon="11.66719"/>
      <trkpt lat="46.55499" lon="11.66662"/>
      <trkpt lat="46.55494" lon="11.66632"/>
      <trkpt lat="46.55501" lon="11.66607"/>
      <trkpt lat="46.55492" lon="11.66588"/>
      <trkpt lat="46.55481" lon="11.66546"/>
      <trkpt lat="46.55464" lon="11.66515"/>
      <trkpt lat="46.55449" lon="11.66491"/>
      <trkpt lat="46.55442" lon="11.66473"/>
      <trkpt lat="46.5543" lon="11.66454"/>
      <trkpt lat="46.5542" lon="11.66431"/>
      <trkpt lat="46.55412" lon="11.66387"/>
      <trkpt lat="46.5541" lon="11.66368"/>
      <trkpt lat="46.55414" lon="11.66341"/>
      <trkpt lat="46.55417" lon="11.66327"/>
      <trkpt lat="46.55417" lon="11.66275"/>
      <trkpt lat="46.55412" lon="11.66247"/>
      <trkpt lat="46.55399" lon="11.66247"/>
      <trkpt lat="46.55388" lon="11.66255"/>
      <trkpt lat="46.55385" lon="11.66259"/>
      <trkpt lat="46.55379" lon="11.66254"/>
      <trkpt lat="46.55374" lon="11.66246"/>
      <trkpt lat="46.55354" lon="11.66207"/>
      <trkpt lat="46.55348" lon="11.66198"/>
      <trkpt lat="46.55337" lon="11.66189"/>
      <trkpt lat="46.55318" lon="11.66176"/>
      <trkpt lat="46.55297" lon="11.66157"/>
      <trkpt lat="46.55286" lon="11.66152"/>
      <trkpt lat="46.55276" lon="11.6614"/>
      <trkpt lat="46.55267" lon="11.66125"/>
      <trkpt lat="46.55258" lon="11.66115"/>
      <trkpt lat="46.55251" lon="11.66094"/>
      <trkpt lat="46.55251" lon="11.66084"/>
      <trkpt lat="46.55255" lon="11.66055"/>
      <trkpt lat="46.55254" lon="11.66047"/>
      <trkpt lat="46.55215" lon="11.65984"/>
      <trkpt lat="46.55184" lon="11.65916"/>
      <trkpt lat="46.55153" lon="11.65841"/>
      <trkpt lat="46.5515" lon="11.65826"/>
      <trkpt lat="46.55147" lon="11.65825"/>
      <trkpt lat="46.55141" lon="11.65829"/>
      <trkpt lat="46.55138" lon="11.65836"/>
      <trkpt lat="46.55134" lon="11.65839"/>
      <trkpt lat="46.5509" lon="11.65839"/>
      <trkpt lat="46.55067" lon="11.65858"/>
      <trkpt lat="46.55049" lon="11.65859"/>
      <trkpt lat="46.55025" lon="11.65866"/>
      <trkpt lat="46.5499" lon="11.65857"/>
      <trkpt lat="46.54961" lon="11.65841"/>
      <trkpt lat="46.5495" lon="11.65832"/>
      <trkpt lat="46.54919" lon="11.65787"/>
      <trkpt lat="46.54877" lon="11.65717"/>
      <trkpt lat="46.54848" lon="11.65673"/>
      <trkpt lat="46.54836" lon="11.6565"/>
      <trkpt lat="46.54818" lon="11.65622"/>
      <trkpt lat="46.54802" lon="11.65573"/>
      <trkpt lat="46.54792" lon="11.65557"/>
      <trkpt lat="46.54777" lon="11.65539"/>
      <trkpt lat="46.54768" lon="11.65531"/>
      <trkpt lat="46.54763" lon="11.6553"/>
      <trkpt lat="46.54749" lon="11.65502"/>
      <trkpt lat="46.54748" lon="11.65498"/>
      <trkpt lat="46.54741" lon="11.65483"/>
      <trkpt lat="46.54723" lon="11.6548"/>
      <trkpt lat="46.54695" lon="11.6547"/>
      <trkpt lat="46.54683" lon="11.6546"/>
      <trkpt lat="46.54651" lon="11.6544"/>
      <trkpt lat="46.5463" lon="11.65431"/>
      <trkpt lat="46.54598" lon="11.65433"/>
      <trkpt lat="46.54568" lon="11.65427"/>
      <trkpt lat="46.54557" lon="11.65431"/>
      <trkpt lat="46.54553" lon="11.65424"/>
      <trkpt lat="46.54547" lon="11.65419"/>
      <trkpt lat="46.54521" lon="11.65412"/>
      <trkpt lat="46.54495" lon="11.65401"/>
      <trkpt lat="46.54462" lon="11.65397"/>
      <trkpt lat="46.54422" lon="11.65378"/>
      <trkpt lat="46.544" lon="11.65362"/>
      <trkpt lat="46.54372" lon="11.65336"/>
      <trkpt lat="46.54349" lon="11.6532"/>
      <trkpt lat="46.54338" lon="11.65303"/>
      <trkpt lat="46.54325" lon="11.65275"/>
      <trkpt lat="46.54322" lon="11.65252"/>
      <trkpt lat="46.5432" lon="11.65152"/>
      <trkpt lat="46.54322" lon="11.65114"/>
      <trkpt lat="46.54318" lon="11.65076"/>
      <trkpt lat="46.54322" lon="11.65001"/>
      <trkpt lat="46.54316" lon="11.64916"/>
      <trkpt lat="46.54311" lon="11.64872"/>
      <trkpt lat="46.54298" lon="11.64778"/>
      <trkpt lat="46.5429" lon="11.64661"/>
      <trkpt lat="46.54278" lon="11.64624"/>
      <trkpt lat="46.54266" lon="11.64566"/>
      <trkpt lat="46.54262" lon="11.6456"/>
      <trkpt lat="46.54257" lon="11.64556"/>
      <trkpt lat="46.54243" lon="11.64552"/>
      <trkpt lat="46.54226" lon="11.64552"/>
      <trkpt lat="46.54216" lon="11.6455"/>
      <trkpt lat="46.54197" lon="11.64535"/>
      <trkpt lat="46.54183" lon="11.64516"/>
      <trkpt lat="46.54175" lon="11.64491"/>
      <trkpt lat="46.54183" lon="11.64516"/>
      <trkpt lat="46.54158" lon="11.64531"/>
      <trkpt lat="46.54134" lon="11.64536"/>
      <trkpt lat="46.54125" lon="11.64536"/>
      <trkpt lat="46.54111" lon="11.64527"/>
      <trkpt lat="46.54007" lon="11.64576"/>
      <trkpt lat="46.54005" lon="11.64568"/>
      <trkpt lat="46.53983" lon="11.64525"/>
      <trkpt lat="46.53968" lon="11.64512"/>
      <trkpt lat="46.53952" lon="11.64491"/>
      <trkpt lat="46.53938" lon="11.64509"/>
      <trkpt lat="46.53934" lon="11.64511"/>
      <trkpt lat="46.53917" lon="11.6449"/>
      <trkpt lat="46.5391" lon="11.64487"/>
      <trkpt lat="46.53897" lon="11.64498"/>
      <trkpt lat="46.53892" lon="11.64501"/>
      <trkpt lat="46.53886" lon="11.645"/>
      <trkpt lat="46.53879" lon="11.64491"/>
      <trkpt lat="46.53875" lon="11.64478"/>
      <trkpt lat="46.5387" lon="11.64475"/>
      <trkpt lat="46.53842" lon="11.6448"/>
      <trkpt lat="46.53808" lon="11.64473"/>
      <trkpt lat="46.53778" lon="11.6447"/>
      <trkpt lat="46.53717" lon="11.64481"/>
      <trkpt lat="46.53704" lon="11.64481"/>
      <trkpt lat="46.53677" lon="11.64477"/>
      <trkpt lat="46.53669" lon="11.64479"/>
      <trkpt lat="46.53661" lon="11.64484"/>
      <trkpt lat="46.53655" lon="11.64496"/>
      <trkpt lat="46.53645" lon="11.64505"/>
      <trkpt lat="46.53627" lon="11.64507"/>
      <trkpt lat="46.53617" lon="11.64502"/>
      <trkpt lat="46.53611" lon="11.64498"/>
      <trkpt lat="46.53606" lon="11.64489"/>
      <trkpt lat="46.5359" lon="11.64453"/>
      <trkpt lat="46.53579" lon="11.64433"/>
      <trkpt lat="46.53543" lon="11.64383"/>
      <trkpt lat="46.53531" lon="11.64359"/>
      <trkpt lat="46.53529" lon="11.64343"/>
      <trkpt lat="46.53531" lon="11.64307"/>
      <trkpt lat="46.5353" lon="11.64272"/>
      <trkpt lat="46.5353" lon="11.6427"/>
      <trkpt lat="46.53529" lon="11.6426"/>
      <trkpt lat="46.53526" lon="11.64243"/>
      <trkpt lat="46.53504" lon="11.64175"/>
      <trkpt lat="46.53491" lon="11.6414"/>
      <trkpt lat="46.53488" lon="11.64135"/>
      <trkpt lat="46.53479" lon="11.64129"/>
      <trkpt lat="46.53459" lon="11.6412"/>
      <trkpt lat="46.53452" lon="11.64108"/>
      <trkpt lat="46.5342" lon="11.63962"/>
      <trkpt lat="46.53414" lon="11.63905"/>
      <trkpt lat="46.53412" lon="11.63791"/>
      <trkpt lat="46.5339" lon="11.63655"/>
      <trkpt lat="46.53385" lon="11.63607"/>
      <trkpt lat="46.53379" lon="11.63572"/>
      <trkpt lat="46.53369" lon="11.63529"/>
      <trkpt lat="46.53364" lon="11.63513"/>
      <trkpt lat="46.53352" lon="11.6345"/>
      <trkpt lat="46.53348" lon="11.6342"/>
      <trkpt lat="46.53332" lon="11.63365"/>
      <trkpt lat="46.53317" lon="11.6333"/>
      <trkpt lat="46.53314" lon="11.63314"/>
      <trkpt lat="46.53313" lon="11.63292"/>
      <trkpt lat="46.53316" lon="11.63265"/>
      <trkpt lat="46.53316" lon="11.63234"/>
      <trkpt lat="46.53316" lon="11.63221"/>
      <trkpt lat="46.53311" lon="11.63198"/>
      <trkpt lat="46.53299" lon="11.63166"/>
      <trkpt lat="46.53286" lon="11.63127"/>
      <trkpt lat="46.53266" lon="11.63085"/>
      <trkpt lat="46.53248" lon="11.63043"/>
      <trkpt lat="46.53243" lon="11.63033"/>
      <trkpt lat="46.53204" lon="11.62982"/>
      <trkpt lat="46.53199" lon="11.62966"/>
      <trkpt lat="46.53198" lon="11.62956"/>
      <trkpt lat="46.53215" lon="11.62959"/>
      <trkpt lat="46.53148" lon="11.62896"/>
      <trkpt lat="46.53135" lon="11.62876"/>
      <trkpt lat="46.53116" lon="11.6284"/>
      <trkpt lat="46.53108" lon="11.62822"/>
      <trkpt lat="46.53103" lon="11.628"/>
      <trkpt lat="46.53101" lon="11.62778"/>
      <trkpt lat="46.53103" lon="11.62678"/>
      <trkpt lat="46.53102" lon="11.62646"/>
      <trkpt lat="46.53086" lon="11.62596"/>
      <trkpt lat="46.53079" lon="11.6256"/>
      <trkpt lat="46.5307" lon="11.62522"/>
      <trkpt lat="46.53" lon="11.62306"/>
      <trkpt lat="46.52988" lon="11.62283"/>
      <trkpt lat="46.52964" lon="11.62254"/>
      <trkpt lat="46.52931" lon="11.6221"/>
      <trkpt lat="46.52915" lon="11.62192"/>
      <trkpt lat="46.52906" lon="11.62188"/>
      <trkpt lat="46.52845" lon="11.62205"/>
      <trkpt lat="46.52833" lon="11.62206"/>
      <trkpt lat="46.52797" lon="11.62189"/>
      <trkpt lat="46.5276" lon="11.62176"/>
      <trkpt lat="46.52755" lon="11.62171"/>
      <trkpt lat="46.52753" lon="11.62159"/>
      <trkpt lat="46.52752" lon="11.621"/>
      <trkpt lat="46.52771" lon="11.62049"/>
      <trkpt lat="46.52774" lon="11.62026"/>
      <trkpt lat="46.52775" lon="11.62003"/>
      <trkpt lat="46.52774" lon="11.61996"/>
      <trkpt lat="46.52764" lon="11.61966"/>
      <trkpt lat="46.52763" lon="11.61951"/>
      <trkpt lat="46.52766" lon="11.61935"/>
      <trkpt lat="46.52764" lon="11.61932"/>
      <trkpt lat="46.52742" lon="11.61921"/>
      <trkpt lat="46.52721" lon="11.61916"/>
      <trkpt lat="46.52706" lon="11.619"/>
      <trkpt lat="46.52694" lon="11.61892"/>
      <trkpt lat="46.52677" lon="11.61881"/>
      <trkpt lat="46.52653" lon="11.61865"/>
      <trkpt lat="46.52647" lon="11.61858"/>
      <trkpt lat="46.52634" lon="11.61837"/>
      <trkpt lat="46.52616" lon="11.61816"/>
      <trkpt lat="46.52586" lon="11.61792"/>
      <trkpt lat="46.52564" lon="11.61758"/>
      <trkpt lat="46.52575" lon="11.61586"/>
      <trkpt lat="46.52586" lon="11.61539"/>
      <trkpt lat="46.52588" lon="11.61497"/>
      <trkpt lat="46.52594" lon="11.6145"/>
      <trkpt lat="46.52605" lon="11.61416"/>
      <trkpt lat="46.52608" lon="11.61399"/>
      <trkpt lat="46.52609" lon="11.61384"/>
      <trkpt lat="46.52598" lon="11.61299"/>
      <trkpt lat="46.52593" lon="11.6128"/>
      <trkpt lat="46.52591" lon="11.61267"/>
      <trkpt lat="46.52591" lon="11.61252"/>
      <trkpt lat="46.52592" lon="11.61229"/>
      <trkpt lat="46.52589" lon="11.61197"/>
      <trkpt lat="46.52587" lon="11.61117"/>
      <trkpt lat="46.52586" lon="11.61108"/>
      <trkpt lat="46.52576" lon="11.61081"/>
      <trkpt lat="46.52575" lon="11.61034"/>
      <trkpt lat="46.52597" lon="11.60993"/>
      <trkpt lat="46.52624" lon="11.60948"/>
      <trkpt lat="46.52676" lon="11.60866"/>
      <trkpt lat="46.52734" lon="11.60783"/>
      <trkpt lat="46.52762" lon="11.60722"/>
      <trkpt lat="46.52771" lon="11.60705"/>
      <trkpt lat="46.5278" lon="11.60696"/>
      <trkpt lat="46.52823" lon="11.60659"/>
      <trkpt lat="46.52828" lon="11.60653"/>
      <trkpt lat="46.52847" lon="11.60606"/>
      <trkpt lat="46.5285" lon="11.60588"/>
      <trkpt lat="46.52856" lon="11.60501"/>
      <trkpt lat="46.52856" lon="11.60437"/>
      <trkpt lat="46.5286" lon="11.60392"/>
      <trkpt lat="46.52883" lon="11.60351"/>
      <trkpt lat="46.52886" lon="11.6034"/>
      <trkpt lat="46.52888" lon="11.60316"/>
      <trkpt lat="46.52887" lon="11.60288"/>
      <trkpt lat="46.52879" lon="11.60279"/>
      <trkpt lat="46.52873" lon="11.60268"/>
      <trkpt lat="46.52873" lon="11.60264"/>
      <trkpt lat="46.52884" lon="11.60164"/>
      <trkpt lat="46.52886" lon="11.60115"/>
      <trkpt lat="46.52886" lon="11.60102"/>
      <trkpt lat="46.52888" lon="11.60097"/>
      <trkpt lat="46.52886" lon="11.60102"/>
      <trkpt lat="46.52886" lon="11.60115"/>
      <trkpt lat="46.52884" lon="11.60164"/>
      <trkpt lat="46.52873" lon="11.60264"/>
      <trkpt lat="46.52873" lon="11.60268"/>
      <trkpt lat="46.52879" lon="11.60279"/>
      <trkpt lat="46.52887" lon="11.60288"/>
      <trkpt lat="46.529" lon="11.60245"/>
      <trkpt lat="46.52922" lon="11.60193"/>
      <trkpt lat="46.52928" lon="11.60188"/>
      <trkpt lat="46.52935" lon="11.60186"/>
      <trkpt lat="46.52962" lon="11.60208"/>
      <trkpt lat="46.52979" lon="11.6021"/>
      <trkpt lat="46.52987" lon="11.60208"/>
      <trkpt lat="46.53133" lon="11.60138"/>
      <trkpt lat="46.53142" lon="11.60126"/>
      <trkpt lat="46.5315" lon="11.60107"/>
      <trkpt lat="46.53154" lon="11.60066"/>
      <trkpt lat="46.53157" lon="11.60055"/>
      <trkpt lat="46.53178" lon="11.60024"/>
      <trkpt lat="46.53187" lon="11.60019"/>
      <trkpt lat="46.53201" lon="11.60023"/>
      <trkpt lat="46.53211" lon="11.60033"/>
      <trkpt lat="46.53235" lon="11.60071"/>
      <trkpt lat="46.53254" lon="11.60108"/>
      <trkpt lat="46.53256" lon="11.60109"/>
      <trkpt lat="46.53262" lon="11.60109"/>
      <trkpt lat="46.53267" lon="11.60103"/>
      <trkpt lat="46.53269" lon="11.60072"/>
      <trkpt lat="46.53272" lon="11.60067"/>
      <trkpt lat="46.53276" lon="11.60064"/>
      <trkpt lat="46.53282" lon="11.60065"/>
      <trkpt lat="46.5331" lon="11.60092"/>
      <trkpt lat="46.53324" lon="11.60104"/>
      <trkpt lat="46.53339" lon="11.60111"/>
      <trkpt lat="46.53354" lon="11.60114"/>
      <trkpt lat="46.53408" lon="11.60103"/>
      <trkpt lat="46.5342" lon="11.60105"/>
      <trkpt lat="46.53435" lon="11.60112"/>
      <trkpt lat="46.53464" lon="11.60133"/>
      <trkpt lat="46.53475" lon="11.60145"/>
      <trkpt lat="46.5348" lon="11.60155"/>
      <trkpt lat="46.5348" lon="11.60165"/>
      <trkpt lat="46.53477" lon="11.60175"/>
      <trkpt lat="46.5347" lon="11.60194"/>
      <trkpt lat="46.53469" lon="11.60207"/>
      <trkpt lat="46.53473" lon="11.60222"/>
      <trkpt lat="46.53482" lon="11.6024"/>
      <trkpt lat="46.53492" lon="11.60273"/>
      <trkpt lat="46.53507" lon="11.60304"/>
      <trkpt lat="46.53527" lon="11.60337"/>
      <trkpt lat="46.5354" lon="11.60353"/>
      <trkpt lat="46.53548" lon="11.60359"/>
      <trkpt lat="46.53585" lon="11.60375"/>
      <trkpt lat="46.53615" lon="11.60391"/>
      <trkpt lat="46.53621" lon="11.6039"/>
      <trkpt lat="46.53626" lon="11.60387"/>
      <trkpt lat="46.53651" lon="11.60393"/>
      <trkpt lat="46.53668" lon="11.60384"/>
      <trkpt lat="46.53688" lon="11.60384"/>
      <trkpt lat="46.53717" lon="11.60404"/>
      <trkpt lat="46.53723" lon="11.60445"/>
      <trkpt lat="46.53727" lon="11.60453"/>
      <trkpt lat="46.53738" lon="11.60465"/>
      <trkpt lat="46.53746" lon="11.60483"/>
      <trkpt lat="46.53753" lon="11.60495"/>
      <trkpt lat="46.53763" lon="11.60499"/>
      <trkpt lat="46.53783" lon="11.60499"/>
      <trkpt lat="46.53792" lon="11.60494"/>
      <trkpt lat="46.53806" lon="11.60479"/>
      <trkpt lat="46.53824" lon="11.60433"/>
      <trkpt lat="46.53825" lon="11.6043"/>
      <trkpt lat="46.53821" lon="11.60424"/>
      <trkpt lat="46.5382" lon="11.60418"/>
      <trkpt lat="46.53823" lon="11.60402"/>
      <trkpt lat="46.53848" lon="11.60343"/>
      <trkpt lat="46.53872" lon="11.60291"/>
      <trkpt lat="46.53876" lon="11.60268"/>
      <trkpt lat="46.53877" lon="11.60252"/>
      <trkpt lat="46.53875" lon="11.60239"/>
      <trkpt lat="46.53871" lon="11.60221"/>
      <trkpt lat="46.5385" lon="11.60182"/>
      <trkpt lat="46.53845" lon="11.6017"/>
      <trkpt lat="46.53842" lon="11.60158"/>
      <trkpt lat="46.5384" lon="11.60142"/>
      <trkpt lat="46.53841" lon="11.60122"/>
      <trkpt lat="46.53845" lon="11.601"/>
      <trkpt lat="46.5384" lon="11.60068"/>
      <trkpt lat="46.53857" lon="11.60019"/>
      <trkpt lat="46.53864" lon="11.60004"/>
      <trkpt lat="46.53906" lon="11.59952"/>
      <trkpt lat="46.53927" lon="11.59917"/>
      <trkpt lat="46.53948" lon="11.5986"/>
      <trkpt lat="46.53957" lon="11.59798"/>
      <trkpt lat="46.53962" lon="11.59783"/>
      <trkpt lat="46.53959" lon="11.59763"/>
      <trkpt lat="46.53961" lon="11.59748"/>
      <trkpt lat="46.5396" lon="11.59725"/>
      <trkpt lat="46.53973" lon="11.59682"/>
      <trkpt lat="46.53971" lon="11.59658"/>
      <trkpt lat="46.53973" lon="11.59649"/>
      <trkpt lat="46.53977" lon="11.59565"/>
      <trkpt lat="46.53975" lon="11.59539"/>
      <trkpt lat="46.53966" lon="11.59497"/>
      <trkpt lat="46.53965" lon="11.59473"/>
      <trkpt lat="46.53967" lon="11.59455"/>
      <trkpt lat="46.53975" lon="11.59407"/>
      <trkpt lat="46.53976" lon="11.59379"/>
      <trkpt lat="46.53974" lon="11.59378"/>
      <trkpt lat="46.53964" lon="11.59394"/>
      <trkpt lat="46.5396" lon="11.59396"/>
      <trkpt lat="46.53968" lon="11.59367"/>
      <trkpt lat="46.53976" lon="11.59328"/>
      <trkpt lat="46.53984" lon="11.59274"/>
      <trkpt lat="46.53967" lon="11.59153"/>
      <trkpt lat="46.53967" lon="11.59117"/>
      <trkpt lat="46.53973" lon="11.59071"/>
      <trkpt lat="46.53982" lon="11.59025"/>
      <trkpt lat="46.53989" lon="11.59002"/>
      <trkpt lat="46.53992" lon="11.58982"/>
      <trkpt lat="46.54001" lon="11.58954"/>
      <trkpt lat="46.54021" lon="11.5892"/>
      <trkpt lat="46.54027" lon="11.58907"/>
      <trkpt lat="46.54035" lon="11.58894"/>
      <trkpt lat="46.54046" lon="11.58872"/>
      <trkpt lat="46.54056" lon="11.58834"/>
      <trkpt lat="46.54061" lon="11.58811"/>
      <trkpt lat="46.54069" lon="11.58784"/>
      <trkpt lat="46.54073" lon="11.58764"/>
      <trkpt lat="46.54079" lon="11.58754"/>
      <trkpt lat="46.54077" lon="11.58734"/>
      <trkpt lat="46.54087" lon="11.5872"/>
      <trkpt lat="46.54096" lon="11.58711"/>
      <trkpt lat="46.54114" lon="11.58699"/>
      <trkpt lat="46.54108" lon="11.58685"/>
      <trkpt lat="46.54122" lon="11.58685"/>
      <trkpt lat="46.54122" lon="11.58682"/>
      <trkpt lat="46.54135" lon="11.58678"/>
      <trkpt lat="46.54182" lon="11.5867"/>
      <trkpt lat="46.54193" lon="11.58664"/>
      <trkpt lat="46.54203" lon="11.58662"/>
      <trkpt lat="46.54214" lon="11.58656"/>
      <trkpt lat="46.54224" lon="11.58654"/>
      <trkpt lat="46.54245" lon="11.58637"/>
      <trkpt lat="46.54247" lon="11.58628"/>
      <trkpt lat="46.54261" lon="11.58615"/>
      <trkpt lat="46.54277" lon="11.58594"/>
      <trkpt lat="46.54309" lon="11.5854"/>
      <trkpt lat="46.54321" lon="11.58516"/>
      <trkpt lat="46.54342" lon="11.58467"/>
      <trkpt lat="46.54351" lon="11.58437"/>
      <trkpt lat="46.54371" lon="11.58319"/>
      <trkpt lat="46.54379" lon="11.58303"/>
      <trkpt lat="46.54389" lon="11.58297"/>
      <trkpt lat="46.54387" lon="11.58289"/>
      <trkpt lat="46.54385" lon="11.5828"/>
      <trkpt lat="46.54394" lon="11.58257"/>
      <trkpt lat="46.54404" lon="11.58255"/>
      <trkpt lat="46.54417" lon="11.5826"/>
      <trkpt lat="46.54425" lon="11.58265"/>
      <trkpt lat="46.5443" lon="11.58273"/>
      <trkpt lat="46.54454" lon="11.58327"/>
      <trkpt lat="46.54465" lon="11.58349"/>
      <trkpt lat="46.54473" lon="11.58371"/>
      <trkpt lat="46.54484" lon="11.58387"/>
      <trkpt lat="46.54491" lon="11.58393"/>
      <trkpt lat="46.54513" lon="11.58394"/>
      <trkpt lat="46.54523" lon="11.58397"/>
      <trkpt lat="46.54536" lon="11.58406"/>
      <trkpt lat="46.54541" lon="11.58407"/>
      <trkpt lat="46.54546" lon="11.58412"/>
      <trkpt lat="46.54548" lon="11.5842"/>
      <trkpt lat="46.54553" lon="11.58427"/>
      <trkpt lat="46.54563" lon="11.58451"/>
      <trkpt lat="46.54571" lon="11.58465"/>
      <trkpt lat="46.54574" lon="11.58473"/>
      <trkpt lat="46.54576" lon="11.58485"/>
      <trkpt lat="46.54582" lon="11.5849"/>
      <trkpt lat="46.5459" lon="11.58504"/>
      <trkpt lat="46.54603" lon="11.58515"/>
      <trkpt lat="46.54608" lon="11.58523"/>
      <trkpt lat="46.54615" lon="11.58522"/>
      <trkpt lat="46.54622" lon="11.58515"/>
      <trkpt lat="46.54625" lon="11.58504"/>
      <trkpt lat="46.54635" lon="11.58481"/>
      <trkpt lat="46.54638" lon="11.5847"/>
      <trkpt lat="46.54649" lon="11.58454"/>
      <trkpt lat="46.54654" lon="11.58453"/>
      <trkpt lat="46.54658" lon="11.58457"/>
      <trkpt lat="46.54668" lon="11.58458"/>
      <trkpt lat="46.54671" lon="11.58461"/>
      <trkpt lat="46.54677" lon="11.5846"/>
      <trkpt lat="46.54689" lon="11.58464"/>
      <trkpt lat="46.54729" lon="11.5848"/>
      <trkpt lat="46.54742" lon="11.58483"/>
      <trkpt lat="46.54755" lon="11.58484"/>
      <trkpt lat="46.54772" lon="11.58482"/>
      <trkpt lat="46.54786" lon="11.58477"/>
      <trkpt lat="46.54796" lon="11.58472"/>
      <trkpt lat="46.54816" lon="11.58456"/>
      <trkpt lat="46.54816" lon="11.58447"/>
      <trkpt lat="46.5482" lon="11.5844"/>
      <trkpt lat="46.54827" lon="11.58441"/>
      <trkpt lat="46.5483" lon="11.58446"/>
      <trkpt lat="46.54848" lon="11.58429"/>
      <trkpt lat="46.5488" lon="11.584"/>
      <trkpt lat="46.54878" lon="11.58388"/>
      <trkpt lat="46.54862" lon="11.58386"/>
      <trkpt lat="46.54841" lon="11.58379"/>
      <trkpt lat="46.54837" lon="11.58372"/>
      <trkpt lat="46.54813" lon="11.58362"/>
      <trkpt lat="46.54809" lon="11.58356"/>
      <trkpt lat="46.54804" lon="11.58344"/>
      <trkpt lat="46.54808" lon="11.5833"/>
      <trkpt lat="46.54823" lon="11.5832"/>
      <trkpt lat="46.54832" lon="11.58306"/>
      <trkpt lat="46.54839" lon="11.5826"/>
      <trkpt lat="46.54849" lon="11.58227"/>
      <trkpt lat="46.5485" lon="11.58196"/>
      <trkpt lat="46.54855" lon="11.5817"/>
      <trkpt lat="46.54858" lon="11.58128"/>
      <trkpt lat="46.54847" lon="11.58087"/>
      <trkpt lat="46.54836" lon="11.58069"/>
      <trkpt lat="46.5483" lon="11.58049"/>
      <trkpt lat="46.54806" lon="11.58009"/>
      <trkpt lat="46.54799" lon="11.57988"/>
      <trkpt lat="46.5479" lon="11.57976"/>
      <trkpt lat="46.54782" lon="11.57971"/>
      <trkpt lat="46.54776" lon="11.57958"/>
      <trkpt lat="46.54775" lon="11.57947"/>
      <trkpt lat="46.54749" lon="11.57923"/>
      <trkpt lat="46.54746" lon="11.57892"/>
      <trkpt lat="46.54754" lon="11.57874"/>
      <trkpt lat="46.5475" lon="11.57739"/>
      <trkpt lat="46.54745" lon="11.57702"/>
      <trkpt lat="46.54745" lon="11.57681"/>
      <trkpt lat="46.5474" lon="11.57646"/>
      <trkpt lat="46.54735" lon="11.57635"/>
      <trkpt lat="46.54728" lon="11.57626"/>
      <trkpt lat="46.54722" lon="11.5761"/>
      <trkpt lat="46.54719" lon="11.57587"/>
      <trkpt lat="46.54711" lon="11.57577"/>
      <trkpt lat="46.54701" lon="11.57564"/>
      <trkpt lat="46.54672" lon="11.57554"/>
      <trkpt lat="46.54629" lon="11.57551"/>
      <trkpt lat="46.54612" lon="11.57532"/>
      <trkpt lat="46.54605" lon="11.57514"/>
      <trkpt lat="46.54593" lon="11.57493"/>
      <trkpt lat="46.54586" lon="11.57471"/>
      <trkpt lat="46.54588" lon="11.5738"/>
      <trkpt lat="46.54587" lon="11.57323"/>
      <trkpt lat="46.54582" lon="11.57298"/>
      <trkpt lat="46.54576" lon="11.5728"/>
      <trkpt lat="46.54564" lon="11.57261"/>
      <trkpt lat="46.54554" lon="11.57233"/>
      <trkpt lat="46.54543" lon="11.57196"/>
      <trkpt lat="46.5454" lon="11.57162"/>
      <trkpt lat="46.54535" lon="11.57141"/>
      <trkpt lat="46.54513" lon="11.57108"/>
      <trkpt lat="46.54509" lon="11.57098"/>
      <trkpt lat="46.54509" lon="11.57081"/>
      <trkpt lat="46.54518" lon="11.57045"/>
      <trkpt lat="46.54497" lon="11.5702"/>
      <trkpt lat="46.54475" lon="11.57015"/>
      <trkpt lat="46.54459" lon="11.57012"/>
      <trkpt lat="46.54446" lon="11.57003"/>
      <trkpt lat="46.54425" lon="11.57"/>
      <trkpt lat="46.54418" lon="11.56992"/>
      <trkpt lat="46.54418" lon="11.56975"/>
      <trkpt lat="46.54424" lon="11.56939"/>
      <trkpt lat="46.54442" lon="11.56827"/>
      <trkpt lat="46.54443" lon="11.56807"/>
      <trkpt lat="46.54443" lon="11.56753"/>
      <trkpt lat="46.54445" lon="11.56711"/>
      <trkpt lat="46.5445" lon="11.56686"/>
      <trkpt lat="46.54448" lon="11.56664"/>
      <trkpt lat="46.54445" lon="11.5664"/>
      <trkpt lat="46.54434" lon="11.56602"/>
      <trkpt lat="46.54421" lon="11.5656"/>
      <trkpt lat="46.54401" lon="11.56515"/>
      <trkpt lat="46.54401" lon="11.56507"/>
      <trkpt lat="46.54399" lon="11.565"/>
      <trkpt lat="46.54396" lon="11.56475"/>
      <trkpt lat="46.54396" lon="11.56454"/>
      <trkpt lat="46.54396" lon="11.56445"/>
      <trkpt lat="46.54396" lon="11.56437"/>
      <trkpt lat="46.54396" lon="11.56409"/>
      <trkpt lat="46.54395" lon="11.56401"/>
      <trkpt lat="46.54392" lon="11.56363"/>
      <trkpt lat="46.54395" lon="11.56344"/>
      <trkpt lat="46.54399" lon="11.5633"/>
      <trkpt lat="46.54437" lon="11.56261"/>
      <trkpt lat="46.5444" lon="11.5625"/>
      <trkpt lat="46.5444" lon="11.56231"/>
      <trkpt lat="46.54446" lon="11.56227"/>
      <trkpt lat="46.54449" lon="11.5622"/>
      <trkpt lat="46.5445" lon="11.5622"/>
      <trkpt lat="46.54449" lon="11.5622"/>
      <trkpt lat="46.54448" lon="11.5621"/>
      <trkpt lat="46.54443" lon="11.56203"/>
      <trkpt lat="46.54438" lon="11.56202"/>
      <trkpt lat="46.54434" lon="11.56204"/>
      <trkpt lat="46.54431" lon="11.56208"/>
      <trkpt lat="46.54429" lon="11.56214"/>
      <trkpt lat="46.54404" lon="11.56207"/>
      <trkpt lat="46.54389" lon="11.56203"/>
      <trkpt lat="46.5437" lon="11.56206"/>
      <trkpt lat="46.54364" lon="11.56207"/>
      <trkpt lat="46.54273" lon="11.56243"/>
      <trkpt lat="46.54263" lon="11.56244"/>
      <trkpt lat="46.54245" lon="11.5624"/>
      <trkpt lat="46.54223" lon="11.56225"/>
      <trkpt lat="46.54209" lon="11.5622"/>
      <trkpt lat="46.54195" lon="11.56219"/>
      <trkpt lat="46.54154" lon="11.56224"/>
      <trkpt lat="46.54131" lon="11.56218"/>
      <trkpt lat="46.54128" lon="11.56217"/>
      <trkpt lat="46.54086" lon="11.56193"/>
      <trkpt lat="46.54067" lon="11.56191"/>
      <trkpt lat="46.54039" lon="11.562"/>
      <trkpt lat="46.54026" lon="11.56206"/>
      <trkpt lat="46.54011" lon="11.56211"/>
      <trkpt lat="46.53992" lon="11.56202"/>
      <trkpt lat="46.53986" lon="11.56196"/>
      <trkpt lat="46.53977" lon="11.56182"/>
      <trkpt lat="46.53971" lon="11.56164"/>
      <trkpt lat="46.5397" lon="11.56152"/>
      <trkpt lat="46.53971" lon="11.56127"/>
      <trkpt lat="46.5398" lon="11.56094"/>
      <trkpt lat="46.54" lon="11.56038"/>
      <trkpt lat="46.54003" lon="11.56025"/>
    </trkseg>
  </trk>
</gpx>